KUIPER-00112            
1 65150U 25171U   26005.16824421  .00008087  00000+0  10874-2 0  9998
2 65150  51.9032  76.4864 0008461 311.2198  48.8035 14.79965349 23514
KUIPER-00114            
1 65151U 25171V   26004.50509360  .00008014  00000+0  10786-2 0  9990
2 65151  51.8995  99.4285 0005284 251.5931 108.4457 14.79944024 23131
KUIPER-00115            
1 65152U 25171W   26004.91826906  .00006081  00000+0  82551-3 0  9996
2 65152  51.9007  90.0839 0009010 279.4560  80.5384 14.79944431 23307
KUIPER-00116            
1 65153U 25171X   26004.94662200  .00004256  00000+0  58626-3 0  9993
2 65153  51.9001  94.9997 0009123 240.3681 119.6373 14.79975566 23233
KUIPER-00118            
1 65154U 25171Y   26004.94396315 -.00005789  00000+0 -73105-3 0  9998
2 65154  51.9015  97.4682 0000539 282.8392  77.2510 14.79931555 23209
KUIPER-00119            
1 65155U 25171Z   26004.41727298  .00007273  00000+0  98068-3 0  9992
2 65155  51.9006  87.3807 0007443 272.0053  88.0057 14.79978090 23293
KUIPER-00120            
1 65762U 25217A   26005.16276197  .00005596  00000+0  82436-3 0  9995
2 65762  51.9003 332.9731 0003404  91.8033 268.3318 14.76582527 15340
KUIPER-00132            
1 65763U 25217B   26005.09960539  .00058349  00000+0  15433-2 0  9994
2 65763  51.8635 311.7103 0008362 101.0246 259.1682 15.37806301 15638
